STARLINK-2741
1 28684C 21044AY  21325.17550357  .00003760  00000-0  25192-3 0  3258
2 28684  53.0550 292.4332 0001997  52.4813  16.2177 15.06394661    10
